25883,GLOBALSTAR M024,1999,129.71,-1.0,-,52.0,Inactive,0,MEO,USA,Globalstar,Unknown,Unknown,Unknown,1 25883U 99043A   24097.25945352 -.00000025  00000+0  14178-2 0  9998,2 25883  52.0019 286.4762 0002375 104.9955  65.7567 11.10160915 66339,11.10160915,0.0002375,MEO
25884,GLOBALSTAR M027,1999,130.39,-1.0,-,52.03,Inactive,0,MEO,USA,Globalstar,Unknown,Unknown,Unknown,1 25884U 99043B   24097.41081968 -.00000042  00000+0  80718-3 0  9994,2 25884  52.0253 351.7429 0021616   7.6054 352.5063 11.04367390 92981,11.0436739,0.0021616,MEO
25885,GLOBALSTAR M054,1999,126.4,-1.0,-,52.01,Inactive,0,LEO,USA,Globalstar,Unknown,Unknown,Unknown,1 25885U 99043C   24097.71939872 -.00000141  00000+0 -17879-2 0  9992,2 25885  52.0125 191.5981 0005213 146.4258  22.7599 11.39203919 69636,11.39203919,0.0005213,LEO
25886,GLOBALSTAR M053,1999,127.7,-1.0,-,52.0,Inactive,0,LEO,USA,Globalstar,Unknown,Unknown,Unknown,1 25886U 99043D   24097.44420373 -.00000050  00000+0  53490-3 0  9992,2 25886  51.9951 115.1219 0003256  62.2918  90.3891 11.27654370 70176,11.2765437,0.0003256,LEO
25907,GLOBALSTAR M058,1999,120.69,-1.0,-,51.99,Inactive,0,LEO,Kazakhstan,Globalstar,Unknown,Unknown,Unknown,1 25907U 99049A   24097.52572427 -.00000123  00000+0 -52138-3 0  9999,2 25907  51.9932 195.1522 0002855 154.2479 205.8499 11.93177502489410,11.93177502,0.0002855,LEO
25908,GLOBALSTAR M050,1999,119.26,-1.0,-,52.0,Inactive,0,LEO,Kazakhstan,Globalstar,Unknown,Unknown,Unknown,1 25908U 99049B   24097.55557961 -.00000029  00000+0  66438-3 0  9991,2 25908  51.9980 235.3685 0008648 237.4352 246.4769 12.07432087 95446,12.07432087,0.0008648,LEO
25909,GLOBALSTAR M033,1999,118.01,-1.0,-,51.99,Inactive,0,LEO,Kazakhstan,Globalstar,Unknown,Unknown,Unknown,1 25909U 99049C   24097.85153786 -.00000106  00000+0 -13751-3 0  9999,2 25909  51.9894 136.5289 0011811  94.1858 266.0339 12.20269295115200,12.20269295,0.0011811,LEO
25910,GLOBALSTAR M055,1999,117.13,-1.0,-,52.0,Inactive,0,LEO,Kazakhstan,Globalstar,Unknown,Unknown,Unknown,1 25910U 99049D   24097.58695029 -.00000064  00000+0  26049-3 0  9998,2 25910  52.0006 169.2679 0006593 304.3082  55.7145 12.29398452114586,12.29398452,0.0006593,LEO
